$$SOE
2460714.500000000, A.D. 2025-Feb-08 00:00:00.0000, 3.158706003205695E+08, 4.971238525002411E+07, 5.640207215111033E+07,
2460721.500000000, A.D. 2025-Feb-15 00:00:00.0000, 3.156612038871489E+08, 6.285182733414523E+07, 5.639176043700588E+07,
2460728.500000000, A.D. 2025-Feb-22 00:00:00.0000, 3.150126264273257E+08, 7.590387909259354E+07, 5.630298714482047E+07,
2460735.500000000, A.D. 2025-Mar-01 00:00:00.0000, 3.139341983481598E+08, 8.885241498818749E+07, 5.613738168285994E+07,
2460742.500000000, A.D. 2025-Mar-08 00:00:00.0000, 3.124357812065506E+08, 1.016821432982927E+08, 5.589666951756795E+07,
2460749.500000000, A.D. 2025-Mar-15 00:00:00.0000, 3.105276968233969E+08, 1.143786107741178E+08, 5.558265970402609E+07,
2460756.500000000, A.D. 2025-Mar-22 00:00:00.0000, 3.082206574494829E+08, 1.269282001616795E+08, 5.519723307524143E+07,
2460763.500000000, A.D. 2025-Mar-29 00:00:00.0000, 3.055257008954633E+08, 1.393181203865796E+08, 5.474233075380341E+07,
2460770.500000000, A.D. 2025-Apr-05 00:00:00.0000, 3.024541311827170E+08, 1.515363931756968E+08, 5.421994325328825E+07,
2460777.500000000, A.D. 2025-Apr-12 00:00:00.0000, 2.990174629393693E+08, 1.635718368380221E+08, 5.363210038235178E+07,
2460784.500000000, A.D. 2025-Apr-19 00:00:00.0000, 2.952273694339142E+08, 1.754140469120970E+08, 5.298086191216253E+07,
2460791.500000000, A.D. 2025-Apr-26 00:00:00.0000, 2.910956345337223E+08, 1.870533740297341E+08, 5.226830896949997E+07,
2460798.500000000, A.D. 2025-May-03 00:00:00.0000, 2.866341086627599E+08, 1.984808995280553E+08, 5.149653614054244E+07,
2460805.500000000, A.D. 2025-May-10 00:00:00.0000, 2.818546687020487E+08, 2.096884092890655E+08, 5.066764426911926E+07,
2460812.500000000, A.D. 2025-May-17 00:00:00.0000, 2.767691817475756E+08, 2.206683661929021E+08, 4.978373392182946E+07,
2460819.500000000, A.D. 2025-May-24 00:00:00.0000, 2.713894727489790E+08, 2.314138815142519E+08, 4.884689947372206E+07,
2460826.500000000, A.D. 2025-May-31 00:00:00.0000, 2.657272962755732E+08, 2.419186859135105E+08, 4.785922377173303E+07,
2460833.500000000, A.D. 2025-Jun-07 00:00:00.0000, 2.597943118199746E+08, 2.521771015227470E+08, 4.682277347697122E+07,
2460840.500000000, A.D. 2025-Jun-14 00:00:00.0000, 2.536020600688919E+08, 2.621840147166507E+08, 4.573959521195659E+07,
2460847.500000000, A.D. 2025-Jun-21 00:00:00.0000, 2.471619411527226E+08, 2.719348465264348E+08, 4.461171209983434E+07,
2460854.500000000, A.D. 2025-Jun-28 00:00:00.0000, 2.404851978016848E+08, 2.814255226514642E+08, 4.344112051728079E+07,
2460861.500000000, A.D. 2025-Jul-05 00:00:00.0000, 2.335829016851185E+08, 2.906524453788559E+08, 4.222978733895230E+07,
2460868.500000000, A.D. 2025-Jul-12 00:00:00.0000, 2.264659415389481E+08, 2.996124667345762E+08, 4.097964768105561E+07,
2460875.500000000, A.D. 2025-Jul-19 00:00:00.0000, 2.191450130751367E+08, 3.083028623959345E+08, 3.969260304542919E+07,
2460882.500000000, A.D. 2025-Jul-26 00:00:00.0000, 2.116306106958779E+08, 3.167213063911516E+08, 3.837051980733544E+07,
2460889.500000000, A.D. 2025-Aug-02 00:00:00.0000, 2.039330208999958E+08, 3.248658466695761E+08, 3.701522801122569E+07,
2460896.500000000, A.D. 2025-Aug-09 00:00:00.0000, 1.960623172370675E+08, 3.327348815715744E+08, 3.562852044108066E+07,
2460903.500000000, A.D. 2025-Aug-16 00:00:00.0000, 1.880283567282422E+08, 3.403271371619401E+08, 3.421215192444400E+07,
2460910.500000000, A.D. 2025-Aug-23 00:00:00.0000, 1.798407778976252E+08, 3.476416454561719E+08, 3.276783881753580E+07,
2460917.500000000, A.D. 2025-Aug-30 00:00:00.0000, 1.715090006036538E+08, 3.546777242556229E+08, 3.129725867439298E+07,
2460924.500000000, A.D. 2025-Sep-06 00:00:00.0000, 1.630422261219645E+08, 3.614349595834315E+08, 2.980205028855695E+07,
2460931.500000000, A.D. 2025-Sep-13 00:00:00.0000, 1.544494356843679E+08, 3.679131882235687E+08, 2.828381403717664E+07,
2460938.500000000, A.D. 2025-Sep-20 00:00:00.0000, 1.457393906361762E+08, 3.741124787083484E+08, 2.674411207612790E+07,
2460945.500000000, A.D. 2025-Sep-27 00:00:00.0000, 1.369206351779737E+08, 3.800331138495534E+08, 2.518446852709365E+07,
2460952.500000000, A.D. 2025-Oct-04 00:00:00.0000, 1.280014995892287E+08, 3.856755753236743E+08, 2.360636986938486E+07,
2460959.500000000, A.D. 2025-Oct-11 00:00:00.0000, 1.189901034794205E+08, 3.910405293355770E+08, 2.201126547877133E+07,
2460966.500000000, A.D. 2025-Oct-18 00:00:00.0000, 1.098943592767904E+08, 3.961288130518644E+08, 2.040056825131536E+07,
2460973.500000000, A.D. 2025-Oct-25 00:00:00.0000, 1.007219760275242E+08, 4.009414217793312E+08, 1.877565528804800E+07,
2460980.500000000, A.D. 2025-Nov-01 00:00:00.0000, 9.148046348461217E+07, 4.054794968677768E+08, 1.713786862713280E+07,
2460987.500000000, A.D. 2025-Nov-08 00:00:00.0000, 8.217713646702500E+07, 4.097443142694238E+08, 1.548851600793982E+07,
2460994.500000000, A.D. 2025-Nov-15 00:00:00.0000, 7.281911958901729E+07, 4.137372736602567E+08, 1.382887163989434E+07,
2461001.500000000, A.D. 2025-Nov-22 00:00:00.0000, 6.341335271965155E+07, 4.174598883081049E+08, 1.216017694932145E+07,
2461008.500000000, A.D. 2025-Nov-29 00:00:00.0000, 5.396659698263934E+07, 4.209137767885043E+08, 1.048364140399647E+07,
2461015.500000000, A.D. 2025-Dec-06 00:00:00.0000, 4.448543898835401E+07, 4.241006563762826E+08, 8.800443606594592E+06,
2461022.500000000, A.D. 2025-Dec-13 00:00:00.0000, 3.497629370160338E+07, 4.270223347035399E+08, 7.111732336394489E+06,
2461029.500000000, A.D. 2025-Dec-20 00:00:00.0000, 2.544540940999236E+07, 4.296807006753036E+08, 5.418627298070937E+06,
2461036.500000000, A.D. 2025-Dec-27 00:00:00.0000, 1.589887369788124E+07, 4.320777172047652E+08, 3.722219883554846E+06,
2461043.500000000, A.D. 2026-Jan-03 00:00:00.0000, 6.342618947556918E+06, 4.342154151206720E+08, 2.023574026873142E+06,
2461050.500000000, A.D. 2026-Jan-10 00:00:00.0000, -3.217572540796055E+06, 4.360958875385547E+08, 3.237270835928023E+05,
2461057.500000000, A.D. 2026-Jan-17 00:00:00.0000, -1.277606359318277E+07, 4.377212845780218E+08, -1.376309296316236E+06,
2461064.500000000, A.D. 2026-Jan-24 00:00:00.0000, -2.232735730446555E+07, 4.390938084245583E+08, -3.075548309555709E+06,
2461071.500000000, A.D. 2026-Jan-31 00:00:00.0000, -3.186609226610438E+07, 4.402157087053456E+08, -4.773027159064859E+06,
2461078.500000000, A.D. 2026-Feb-07 00:00:00.0000, -4.138703782545348E+07, 4.410892780994281E+08, -6.467806243941307E+06,
2461085.500000000, A.D. 2026-Feb-14 00:00:00.0000, -5.088508913021504E+07, 4.417168481453473E+08, -8.158968405456543E+06,
2461092.500000000, A.D. 2026-Feb-21 00:00:00.0000, -6.035526157630777E+07, 4.421007858029957E+08, -9.845618218618095E+06,
2461099.500000000, A.D. 2026-Feb-28 00:00:00.0000, -6.979268574834667E+07, 4.422434919049174E+08, -1.152688113656282E+07,
2461106.500000000, A.D. 2026-Mar-07 00:00:00.0000, -7.919260491302963E+07, 4.421473995278068E+08, -1.320190245913723E+07,
2461113.500000000, A.D. 2026-Mar-14 00:00:00.0000, -8.855037229279798E+07, 4.418149699301141E+08, -1.486984657090411E+07,
2461120.500000000, A.D. 2026-Mar-21 00:00:00.0000, -9.786144634154132E+07, 4.412486889382623E+08, -1.652989637549457E+07,
2461127.500000000, A.D. 2026-Mar-28 00:00:00.0000, -1.071213860327687E+08, 4.404510647972355E+08, -1.818125265849131E+07,
2461134.500000000, A.D. 2026-Apr-04 00:00:00.0000, -1.163258467638189E+08, 4.394246265052156E+08, -1.982313340250033E+07,
2461141.500000000, A.D. 2026-Apr-11 00:00:00.0000, -1.254705766023089E+08, 4.381719222584379E+08, -2.145477310884219E+07,
2461148.500000000, A.D. 2026-Apr-18 00:00:00.0000, -1.345514127149106E+08, 4.366955179871213E+08, -2.307542214088696E+07,
2461155.500000000, A.D. 2026-Apr-25 00:00:00.0000, -1.435642779308877E+08, 4.349979959853233E+08, -2.468434609179580E+07,
2461162.500000000, A.D. 2026-May-02 00:00:00.0000, -1.525051774071770E+08, 4.330819535931413E+08, -2.628082518144569E+07,
2461169.500000000, A.D. 2026-May-09 00:00:00.0000, -1.613701952679718E+08, 4.309500018528142E+08, -2.786415369862218E+07,
2461176.500000000, A.D. 2026-May-16 00:00:00.0000, -1.701554908395367E+08, 4.286047642653663E+08, -2.943363951091444E+07,
2461183.500000000, A.D. 2026-May-23 00:00:00.0000, -1.788572944286962E+08, 4.260488766607519E+08, -3.098860356280889E+07,
2461190.500000000, A.D. 2026-May-30 00:00:00.0000, -1.874719047236440E+08, 4.232849884952365E+08, -3.252837914515391E+07,
2461197.500000000, A.D. 2026-Jun-06 00:00:00.0000, -1.959956881317683E+08, 4.203157622967697E+08, -3.405231117433803E+07,
2461204.500000000, A.D. 2026-Jun-13 00:00:00.0000, -2.044250763862804E+08, 4.171438714495059E+08, -3.555975580059190E+07,
2461211.500000000, A.D. 2026-Jun-20 00:00:00.0000, -2.127565629221109E+08, 4.137719992390059E+08, -3.705008006046805E+07,
2461218.500000000, A.D. 2026-Jun-27 00:00:00.0000, -2.209866997166376E+08, 4.102028388145727E+08, -3.852266144578640E+07,
2461225.500000000, A.D. 2026-Jul-04 00:00:00.0000, -2.291120945919095E+08, 4.064390932882025E+08, -3.997688745211610E+07,
2461232.500000000, A.D. 2026-Jul-11 00:00:00.0000, -2.371294087218610E+08, 4.024834758325033E+08, -4.141215514047237E+07,
2461239.500000000, A.D. 2026-Jul-18 00:00:00.0000, -2.450353542497008E+08, 3.983387097983601E+08, -4.282787071829337E+07,
2461246.500000000, A.D. 2026-Jul-25 00:00:00.0000, -2.528266919890577E+08, 3.940075288507886E+08, -4.422344914139719E+07,
2461253.500000000, A.D. 2026-Aug-01 00:00:00.0000, -2.605002291588450E+08, 3.894926770710912E+08, -4.559831374493778E+07,
2461260.500000000, A.D. 2026-Aug-08 00:00:00.0000, -2.680528169350553E+08, 3.847969089860268E+08, -4.695189592562717E+07,
2461267.500000000, A.D. 2026-Aug-15 00:00:00.0000, -2.754813474027916E+08, 3.799229899712925E+08, -4.828363487608629E+07,
2461274.500000000, A.D. 2026-Aug-22 00:00:00.0000, -2.827827506686186E+08, 3.748736982483453E+08, -4.959297720148581E+07,
2461281.500000000, A.D. 2026-Aug-29 00:00:00.0000, -2.899539944211620E+08, 3.696518271010881E+08, -5.087937632076906E+07,
$$EOE